stk.v.4.3 

BEGIN Ephemeris 
 
NumberOfEphemerisPoints		146 
ScenarioEpoch	    3 Sep 2020 22:17:19.977206290 
InterpolationMethod		Lagrange 
InterpolationOrder		5 
CentralBody				Earth 
CoordinateSystem			TEME 
CoordinateSystemEpoch	  3 Sep 2020 22:17:19.977206290 
DistanceUnit			Kilometers 
 
EphemerisTimePosVel 
 
       0.00000000   -4086.52956985    5877.66230243       0.03093029 -0.379315499 -0.275503137  7.448929987
 END Ephemeris 
